LAOSAT 1                
1 41034U 15067A   26189.88141892 -.00000328  00000+0  00000+0 0  9990
2 41034   0.0409 188.3211 0002356 230.2254 314.1154  1.00271804 39076
TELSTAR 12V             
1 41036U 15068A   26189.78174637 -.00000104  00000+0  00000+0 0  9997
2 41036   0.0186 296.8357 0002168 177.6349  78.6937  1.00272266 38844
ELEKTRO-L 2             
1 41105U 15074A   26189.42539329 -.00000107  00000+0  00000+0 0  9998
2 41105   6.7437  70.2631 0000693 230.4230 124.3160  1.00273098 38717
COSMOS 2513             
1 41121U 15075A   26190.58477185 -.00000124  00000+0  00000+0 0  9996
2 41121   0.0628 103.5481 0002752 349.9495 124.7841  1.00264254 38774
EXPRESS-AMU1            
1 41191U 15082A   26189.79181795  .00000170  00000+0  00000+0 0  9991
2 41191   0.0191  39.6992 0002372  76.1847 131.9933  1.00270474 38481
GAOFEN-4                
1 41194U 15083A   26189.84857875 -.00000321  00000+0  00000+0 0  9999
2 41194   0.4098  83.8775 0004350 118.1086 136.0035  1.00270598 38749
BELINTERSAT-1           
1 41238U 16001A   26189.84767019  .00000121  00000+0  00000+0 0  9996
2 41238   0.0227  95.0090 0001801 337.0457 211.3797  1.00271909 38452
IRNSS-1E                
1 41241U 16003A   26189.78864986 -.00000309  00000+0  00000+0 0  9995
2 41241  33.2798  59.4366 0019240 178.8165  84.1076  1.00268624 38298
EUTELSAT 9B             
1 41310U 16005A   26189.88447471  .00000077  00000+0  00000+0 0  9992
2 41310   0.0211  42.0720 0001046  71.6905 140.5107  1.00275876 38330
SES-9                   
1 41380U 16013A   26189.80616002 -.00000331  00000+0  00000+0 0  9992
2 41380   0.0167 325.3421 0002264 139.9432 219.9887  1.00272295 37650
EUTELSAT 65 WEST A      
1 41382U 16014A   26189.84308020 -.00000262  00000+0  00000+0 0  9990
2 41382   0.0713 310.8505 0002136 157.6282  56.6415  1.00271768 37746
IRNSS-1F                
1 41384U 16015A   26189.79112461  .00000168  00000+0  00000+0 0  9993
2 41384   5.4015  96.2910 0017390 183.5784 324.2295  1.00278120 37884
BEIDOU-2 IGSO-6         
1 41434U 16021A   26177.11016981 -.00000145  00000+0  00000+0 0  9995
2 41434  60.2385  37.9495 0057558 231.0163 137.2672  1.00258926 37578
IRNSS-1G                
1 41469U 16027A   26189.63725388 -.00000323  00000+0  00000+0 0  9995
2 41469   5.2469  96.9783 0005997   8.4226 180.2448  1.00274494 37396
JCSAT-2B                
1 41471U 16028A   26189.88644561 -.00000151  00000+0  00000+0 0  9998
2 41471   0.0190  32.2040 0000910  85.2188 282.5390  1.00271514 37349
THAICOM 8               
1 41552U 16031A   26189.87153888 -.00000107  00000+0  00000+0 0  9999
2 41552   0.0629  40.5250 0003155  31.8151 246.7285  1.00271025 36938
INTELSAT 31 (IS-31)     
1 41581U 16035A   26189.99099404 -.00000136  00000+0  00000+0 0  9993
2 41581   0.0271 258.5469 0001038  24.0943 266.0020  1.00270030 36901
BEIDOU-2 G7             
1 41586U 16037A   26190.59070590 -.00000341  00000+0  00000+0 0  9991
2 41586   1.7724  69.5121 0006079   6.7974 174.2897  1.00264643  7119
ABS-2A (MONGOLSAT-1)    
1 41588U 16038A   26189.91809194 -.00000069  00000+0  00000+0 0  9995
2 41588   0.0191  25.7394 0001255  24.3144 282.0393  1.00268926 36921
EUTELSAT 117 WEST B     
1 41589U 16038B   26189.69361255  .00000003  00000+0  00000+0 0  9999
2 41589   0.0042 192.7787 0000254 262.1262 324.4365  1.00272299 36871
BRISAT                  
1 41591U 16039A   26189.88557895  .00000000  00000+0  00000+0 0  9998
2 41591   0.0178   8.1980 0001941  99.9214 288.0230  1.00270744 36820
ECHOSTAR 18             
1 41592U 16039B   26189.84368686 -.00000268  00000+0  00000+0 0  9990
2 41592   0.0190  34.6506 0001436  84.6437  49.8625  1.00272067 36843
MUOS-5                  
1 41622U 16041A   26189.90611904 -.00000098  00000+0  00000+0 0  9999
2 41622   2.1592 302.0606 0199188 260.6291 305.2189  1.00271803 37308
TIANTONG-1 1            
1 41725U 16048A   26189.85233375 -.00000306  00000+0  00000+0 0  9998
2 41725   3.8888  43.5685 0005101  55.5503 235.9244  1.00271958 36480
JCSAT-16                
1 41729U 16050A   26189.64112823  .00000000  00000+0  00000+0 0  9996
2 41729   0.0264  37.0581 0000860  93.7939 170.4964  1.00268669 36283
USA 270                 
1 41744U 16052A   26189.45328858 -.00000339  00000+0  00000+0 0  9997
2 41744   4.2508  76.9127 0009267 101.4411  37.4334  1.00271003 28344
USA 271                 
1 41745U 16052B   26188.73473646 -.00000278  00000+0  00000+0 0  9996
2 41745   4.2217  76.9947 0010955 166.6184  44.5685  1.00271212 28124
INTELSAT 36 (IS-36)     
1 41747U 16053A   26188.80017598 -.00000012  00000+0  00000+0 0  9993
2 41747   0.0091  10.2892 0000975  27.8198 244.1989  1.00285795 36163
INSAT-3DR               
1 41752U 16054A   26189.91618714 -.00000063  00000+0  00000+0 0  9996
2 41752   0.0533  89.1958 0010521 181.3413  60.1525  1.00272097 36031
GSAT-18                 
1 41793U 16060A   26189.91618709 -.00000062  00000+0  00000+0 0  9991
2 41793   0.0185  88.1714 0005412 349.1102 253.3771  1.00271235 35749
SKY MUSTER 2 (NBN1B)    
1 41794U 16060B   26189.81335339 -.00000230  00000+0  00000+0 0  9993
2 41794   0.0164 345.0688 0001499 127.8708 251.4197  1.00270362 35736
HIMAWARI-9              
1 41836U 16064A   26189.88384560  .00000000  00000+0  00000+0 0  9995
2 41836   0.0189  30.1650 0002233 142.4769 213.1400  1.00272459 35425
