OBJECT_NAME,OBJECT_ID,EPOCH,MEAN_MOTION,ECCENTRICITY,INCLINATION,RA_OF_ASC_NODE,ARG_OF_PERICENTER,MEAN_ANOMALY,EPHEMERIS_TYPE,CLASSIFICATION_TYPE,NORAD_CAT_ID,ELEMENT_SET_NO,REV_AT_EPOCH,BSTAR,MEAN_MOTION_DOT,MEAN_MOTION_DDOT
LAOSAT 1,2015-067A,2026-07-08T21:09:14.594688,1.00271804,.00023567,0.0409,188.3211,230.2254,314.1154,0,U,41034,999,3907,0,-.328E-5,0
TELSTAR 12V,2015-068A,2026-07-08T18:45:42.886368,1.00272266,.00021688,0.0186,296.8357,177.6349,78.6937,0,U,41036,999,3884,0,-.104E-5,0
ELEKTRO-L 2,2015-074A,2026-07-08T10:12:33.980256,1.00273098,.00006934,6.7437,70.2631,230.4230,124.3160,0,U,41105,999,3871,0,-.107E-5,0
COSMOS 2513,2015-075A,2026-07-09T14:02:04.287840,1.00264254,.0002752,0.0628,103.5481,349.9495,124.7841,0,U,41121,999,3877,0,-.124E-5,0
EXPRESS-AMU1,2015-082A,2026-07-08T19:00:13.070880,1.00270474,.00023728,0.0191,39.6992,76.1847,131.9933,0,U,41191,999,3848,0,.17E-5,0
GAOFEN-4,2015-083A,2026-07-08T20:21:57.204000,1.00270598,.00043506,0.4098,83.8775,118.1086,136.0035,0,U,41194,999,3874,0,-.321E-5,0
BELINTERSAT-1,2016-001A,2026-07-08T20:20:38.704416,1.00271909,.00018015,0.0227,95.0090,337.0457,211.3797,0,U,41238,999,3845,0,.121E-5,0
IRNSS-1E,2016-003A,2026-07-08T18:55:39.347904,1.00268624,.001924,33.2798,59.4366,178.8165,84.1076,0,U,41241,999,3829,0,-.309E-5,0
EUTELSAT 9B,2016-005A,2026-07-08T21:13:38.614944,1.00275876,.00010468,0.0211,42.0720,71.6905,140.5107,0,U,41310,999,3833,0,.77E-6,0
SES-9,2016-013A,2026-07-08T19:20:52.225728,1.00272295,.00022644,0.0167,325.3421,139.9432,219.9887,0,U,41380,999,3765,0,-.331E-5,0
EUTELSAT 65 WEST A,2016-014A,2026-07-08T20:14:02.129280,1.00271768,.00021362,0.0713,310.8505,157.6282,56.6415,0,U,41382,999,3774,0,-.262E-5,0
IRNSS-1F,2016-015A,2026-07-08T18:59:13.166304,1.00278120,.00173908,5.4015,96.2910,183.5784,324.2295,0,U,41384,999,3788,0,.168E-5,0
BEIDOU-2 IGSO-6,2016-021A,2026-06-26T02:38:38.671584,1.00258926,.0057558,60.2385,37.9495,231.0163,137.2672,0,U,41434,999,3757,0,-.145E-5,0
IRNSS-1G,2016-027A,2026-07-08T15:17:38.735232,1.00274494,.00059978,5.2469,96.9783,8.4226,180.2448,0,U,41469,999,3739,0,-.323E-5,0
JCSAT-2B,2016-028A,2026-07-08T21:16:28.900704,1.00271514,.00009103,0.0190,32.2040,85.2188,282.5390,0,U,41471,999,3734,0,-.151E-5,0
THAICOM 8,2016-031A,2026-07-08T20:55:00.959232,1.00271025,.00031554,0.0629,40.5250,31.8151,246.7285,0,U,41552,999,3693,0,-.107E-5,0
INTELSAT 31 (IS-31),2016-035A,2026-07-08T23:47:01.885056,1.00270030,.00010382,0.0271,258.5469,24.0943,266.0020,0,U,41581,999,3690,0,-.136E-5,0
BEIDOU-2 G7,2016-037A,2026-07-09T14:10:36.989760,1.00264643,.0006079,1.7724,69.5121,6.7974,174.2897,0,U,41586,999,711,0,-.341E-5,0
ABS-2A (MONGOLSAT-1),2016-038A,2026-07-08T22:02:03.143616,1.00268926,.00012556,0.0191,25.7394,24.3144,282.0393,0,U,41588,999,3692,0,-.69E-6,0
EUTELSAT 117 WEST B,2016-038B,2026-07-08T16:38:48.124320,1.00272299,.00002545,0.0042,192.7787,262.1262,324.4365,0,U,41589,999,3687,0,.3E-7,0
BRISAT,2016-039A,2026-07-08T21:15:14.021280,1.00270744,.00019413,0.0178,8.1980,99.9214,288.0230,0,U,41591,999,3682,0,0,0
ECHOSTAR 18,2016-039B,2026-07-08T20:14:54.544704,1.00272067,.00014365,0.0190,34.6506,84.6437,49.8625,0,U,41592,999,3684,0,-.268E-5,0
MUOS-5,2016-041A,2026-07-08T21:44:48.685056,1.00271803,.01991882,2.1592,302.0606,260.6291,305.2189,0,U,41622,999,3730,0,-.98E-6,0
TIANTONG-1 1,2016-048A,2026-07-08T20:27:21.636000,1.00271958,.00051019,3.8888,43.5685,55.5503,235.9244,0,U,41725,999,3648,0,-.306E-5,0
JCSAT-16,2016-050A,2026-07-08T15:23:13.479072,1.00268669,.00008608,0.0264,37.0581,93.7939,170.4964,0,U,41729,999,3628,0,0,0
USA 270,2016-052A,2026-07-08T10:52:44.133312,1.00271003,.0009267,4.2508,76.9127,101.4411,37.4334,0,U,41744,999,2834,0,-.339E-5,0
USA 271,2016-052B,2026-07-07T17:38:01.230144,1.00271212,.0010955,4.2217,76.9947,166.6184,44.5685,0,U,41745,999,2812,0,-.278E-5,0
INTELSAT 36 (IS-36),2016-053A,2026-07-07T19:12:15.204672,1.00285795,.00009753,0.0091,10.2892,27.8198,244.1989,0,U,41747,999,3616,0,-.12E-6,0
INSAT-3DR,2016-054A,2026-07-08T21:59:18.568896,1.00272097,.00105212,0.0533,89.1958,181.3413,60.1525,0,U,41752,999,3603,0,-.63E-6,0
GSAT-18,2016-060A,2026-07-08T21:59:18.564576,1.00271235,.00054129,0.0185,88.1714,349.1102,253.3771,0,U,41793,999,3574,0,-.62E-6,0
SKY MUSTER 2 (NBN1B),2016-060B,2026-07-08T19:31:13.732896,1.00270362,.00014998,0.0164,345.0688,127.8708,251.4197,0,U,41794,999,3573,0,-.23E-5,0
HIMAWARI-9,2016-064A,2026-07-08T21:12:44.259840,1.00272459,.0002233,0.0189,30.1650,142.4769,213.1400,0,U,41836,999,3542,0,0,0
